start=new Date('2022-01-27T00:00:00.000Z').valueOf();
sats=[{"LAUNCH_DATE":"2020-08-18","MEAN_MOTION":"15.06409988","FILE":"3284266","TIME_SYSTEM":"UTC","RA_OF_ASC_NODE":"204.6941","CENTER_NAME":"EARTH","MEAN_MOTION_DDOT":"0.0000000000000","OBJECT_NAME":"STARLINK-1620","MEAN_ELEMENT_THEORY":"SGP4","GP_ID":"194677723","REF_FRAME":"TEME","DECAY_DATE":null,"COUNTRY_CODE":"US","MEAN_MOTION_DOT":"0.00000985","OBJECT_ID":"2020-057AJ","CLASSIFICATION_TYPE":"U","ELEMENT_SET_NO":"999","BSTAR":"0.00008502500000","OBJECT_TYPE":"PAYLOAD","REV_AT_EPOCH":"8105","PERIOD":"95.592","EPOCH":"2022-01-26T12:03:30.955968","ARG_OF_PERICENTER":"80.8690","APOAPSIS":"549.097","SITE":"AFETR","INCLINATION":"53.0539","ECCENTRICITY":"0.00027640","TLE_LINE2":"2 46149  53.0539 204.6941 0002764  80.8690 279.2612 15.06409988 81050","TLE_LINE1":"1 46149U 20057AJ  22026.50244162  .00000985  00000-0  85025-4 0  9990","RCS_SIZE":"LARGE","PERIAPSIS":"545.269","SEMIMAJOR_AXIS":"6925.318","EPHEMERIS_TYPE":"0","MEAN_ANOMALY":"279.2612","NORAD_CAT_ID":"46149"},{"ARG_OF_PERICENTER":"72.8744","APOAPSIS":"548.618","SITE":"AFETR","INCLINATION":"53.0534","ECCENTRICITY":"0.00020050","TLE_LINE2":"2 46150  53.0534 227.0892 0002005  72.8744 287.2464 15.06394901 79420","TLE_LINE1":"1 46150U 20057AK  22025.96611412 -.00000789  00000-0 -34082-4 0  9998","RCS_SIZE":"LARGE","PERIAPSIS":"545.841","SEMIMAJOR_AXIS":"6925.364","EPHEMERIS_TYPE":"0","MEAN_ANOMALY":"287.2464","NORAD_CAT_ID":"46150","LAUNCH_DATE":"2020-08-18","MEAN_MOTION":"15.06394901","FILE":"3284266","TIME_SYSTEM":"UTC","RA_OF_ASC_NODE":"227.0892","CENTER_NAME":"EARTH","MEAN_MOTION_DDOT":"0.0000000000000","OBJECT_NAME":"STARLINK-1629","MEAN_ELEMENT_THEORY":"SGP4","GP_ID":"194678974","REF_FRAME":"TEME","DECAY_DATE":null,"COUNTRY_CODE":"US","MEAN_MOTION_DOT":"-0.00000789","OBJECT_ID":"2020-057AK","CLASSIFICATION_TYPE":"U","ELEMENT_SET_NO":"999","OBJECT_TYPE":"PAYLOAD","BSTAR":"-0.00003408200000","REV_AT_EPOCH":"7942","PERIOD":"95.592","EPOCH":"2022-01-25T23:11:12.259968"},{"ARG_OF_PERICENTER":"84.7955","SITE":"AFETR","INCLINATION":"53.0530","APOAPSIS":"548.679","TLE_LINE2":"2 46151  53.0530 204.8214 0002131  84.7955 275.3277 15.06403417 79775","ECCENTRICITY":"0.00021310","TLE_LINE1":"1 46151U 20057AL  22026.47294532  .00001541  00000-0  12236-3 0  9997","RCS_SIZE":"LARGE","PERIAPSIS":"545.727","MEAN_ANOMALY":"275.3277","SEMIMAJOR_AXIS":"6925.338","EPHEMERIS_TYPE":"0","NORAD_CAT_ID":"46151","LAUNCH_DATE":"2020-08-18","FILE":"3284266","TIME_SYSTEM":"UTC","MEAN_MOTION":"15.06403417","CENTER_NAME":"EARTH","RA_OF_ASC_NODE":"204.8214","OBJECT_NAME":"STARLINK-1631","MEAN_MOTION_DDOT":"0.0000000000000","MEAN_ELEMENT_THEORY":"SGP4","GP_ID":"194679224","DECAY_DATE":null,"REF_FRAME":"TEME","MEAN_MOTION_DOT":"0.00001541","COUNTRY_CODE":"US","OBJECT_ID":"2020-057AL","CLASSIFICATION_TYPE":"U","ELEMENT_SET_NO":"999","OBJECT_TYPE":"PAYLOAD","BSTAR":"0.00012236000000","PERIOD":"95.592","EPOCH":"2022-01-26T11:21:02.475648","REV_AT_EPOCH":"7977"},{"RCS_SIZE":"LARGE","TLE_LINE1":"1 46152U 20057AM  22026.52270437  .00000943  00000-0  82216-4 0  9993","INCLINATION":"53.0539","SITE":"AFETR","APOAPSIS":"548.691","ARG_OF_PERICENTER":"80.8433","TLE_LINE2":"2 46152  53.0539 224.5995 0002083  80.8433 279.2791 15.06388766 79508","ECCENTRICITY":"0.00020830","NORAD_CAT_ID":"46152","PERIAPSIS":"545.805","MEAN_ANOMALY":"279.2791","SEMIMAJOR_AXIS":"6925.383","EPHEMERIS_TYPE":"0","GP_ID":"194677473","MEAN_ELEMENT_THEORY":"SGP4","DECAY_DATE":null,"REF_FRAME":"TEME","TIME_SYSTEM":"UTC","FILE":"3284266","MEAN_MOTION":"15.06388766","LAUNCH_DATE":"2020-08-18","OBJECT_NAME":"STARLINK-1634","MEAN_MOTION_DDOT":"0.0000000000000","CENTER_NAME":"EARTH","RA_OF_ASC_NODE":"224.5995","BSTAR":"0.00008221600000","OBJECT_TYPE":"PAYLOAD","PERIOD":"95.593","EPOCH":"2022-01-26T12:32:41.657568","REV_AT_EPOCH":"7950","OBJECT_ID":"2020-057AM","MEAN_MOTION_DOT":"0.00000943","COUNTRY_CODE":"US","CLASSIFICATION_TYPE":"U","ELEMENT_SET_NO":"999"},{"PERIAPSIS":"545.719","EPHEMERIS_TYPE":"0","SEMIMAJOR_AXIS":"6925.378","MEAN_ANOMALY":"280.5788","NORAD_CAT_ID":"46153","APOAPSIS":"548.767","INCLINATION":"53.0540","SITE":"AFETR","ARG_OF_PERICENTER":"79.5449","ECCENTRICITY":"0.00022010","TLE_LINE2":"2 46153  53.0540 205.9375 0002201  79.5449 280.5788 15.06390384 79735","RCS_SIZE":"LARGE","TLE_LINE1":"1 46153U 20057AN  22026.22598391  .00000800  00000-0  72661-4 0  9998","OBJECT_ID":"2020-057AN","MEAN_MOTION_DOT":"0.00000800","COUNTRY_CODE":"US","CLASSIFICATION_TYPE":"U","ELEMENT_SET_NO":"999","BSTAR":"0.00007266100000","OBJECT_TYPE":"PAYLOAD","REV_AT_EPOCH":"7973","PERIOD":"95.593","EPOCH":"2022-01-26T05:25:25.009824","FILE":"3284266","TIME_SYSTEM":"UTC","MEAN_MOTION":"15.06390384","LAUNCH_DATE":"2020-08-18","MEAN_MOTION_DDOT":"0.0000000000000","OBJECT_NAME":"STARLINK-1636","RA_OF_ASC_NODE":"205.9375","CENTER_NAME":"EARTH","GP_ID":"194678223","MEAN_ELEMENT_THEORY":"SGP4","DECAY_DATE":null,"REF_FRAME":"TEME"},{"DECAY_DATE":null,"REF_FRAME":"TEME","MEAN_ELEMENT_THEORY":"SGP4","GP_ID":"194678475","CENTER_NAME":"EARTH","RA_OF_ASC_NODE":"214.4019","MEAN_MOTION_DDOT":"0.0000000000000","OBJECT_NAME":"STARLINK-1642","LAUNCH_DATE":"2020-08-18","MEAN_MOTION":"15.06400121","FILE":"3284266","TIME_SYSTEM":"UTC","PERIOD":"95.592","EPOCH":"2022-01-26T13:37:42.153600","REV_AT_EPOCH":"7965","OBJECT_TYPE":"PAYLOAD","BSTAR":"0.00011790000000","ELEMENT_SET_NO":"999","CLASSIFICATION_TYPE":"U","MEAN_MOTION_DOT":"0.00001475","COUNTRY_CODE":"US","OBJECT_ID":"2020-057AP","TLE_LINE1":"1 46154U 20057AP  22026.56784900  .00001475  00000-0  11790-3 0  9993","RCS_SIZE":"LARGE","TLE_LINE2":"2 46154  53.0544 214.4019 0002168  81.3801 278.7434 15.06400121 79654","ECCENTRICITY":"0.00021680","ARG_OF_PERICENTER":"81.3801","INCLINATION":"53.0544","SITE":"AFETR","APOAPSIS":"548.715","NORAD_CAT_ID":"46154","MEAN_ANOMALY":"278.7434","EPHEMERIS_TYPE":"0","SEMIMAJOR_AXIS":"6925.348","PERIAPSIS":"545.712"},{"REV_AT_EPOCH":"8076","PERIOD":"95.592","EPOCH":"2022-01-26T19:00:09.259776","BSTAR":"-0.00002005700000","OBJECT_TYPE":"PAYLOAD","ELEMENT_SET_NO":"999","CLASSIFICATION_TYPE":"U","MEAN_MOTION_DOT":"-0.00000581","COUNTRY_CODE":"US","OBJECT_ID":"2020-057AQ","DECAY_DATE":null,"REF_FRAME":"TEME","MEAN_ELEMENT_THEORY":"SGP4","GP_ID":"194684015","RA_OF_ASC_NODE":"183.3828","CENTER_NAME":"EARTH","OBJECT_NAME":"STARLINK-1667","MEAN_MOTION_DDOT":"0.0000000000000","LAUNCH_DATE":"2020-08-18","FILE":"3284322","MEAN_MOTION":"15.06396809","TIME_SYSTEM":"UTC","NORAD_CAT_ID":"46155","EPHEMERIS_TYPE":"0","SEMIMAJOR_AXIS":"6925.358","MEAN_ANOMALY":"272.5529","PERIAPSIS":"545.675","TLE_LINE1":"1 46155U 20057AQ  22026.79177384 -.00000581  00000-0 -20057-4 0  9997","RCS_SIZE":"LARGE","ECCENTRICITY":"0.00022360","TLE_LINE2":"2 46155  53.0536 183.3828 0002236  87.5716 272.5529 15.06396809 80765","ARG_OF_PERICENTER":"87.5716","APOAPSIS":"548.772","INCLINATION":"53.0536","SITE":"AFETR"},{"NORAD_CAT_ID":"46156","MEAN_ANOMALY":"283.4759","EPHEMERIS_TYPE":"0","SEMIMAJOR_AXIS":"6925.364","PERIAPSIS":"545.729","TLE_LINE1":"1 46156U 20057AR  22026.51716302  .00000674  00000-0  64190-4 0  9994","RCS_SIZE":"LARGE","TLE_LINE2":"2 46156  53.0525 204.6162 0002166  76.6472 283.4759 15.06394845 81037","ECCENTRICITY":"0.00021660","ARG_OF_PERICENTER":"76.6472","SITE":"AFETR","INCLINATION":"53.0525","APOAPSIS":"548.729","EPOCH":"2022-01-26T12:24:42.884928","PERIOD":"95.592","REV_AT_EPOCH":"8103","BSTAR":"0.00006419000000","OBJECT_TYPE":"PAYLOAD","CLASSIFICATION_TYPE":"U","ELEMENT_SET_NO":"999","COUNTRY_CODE":"US","MEAN_MOTION_DOT":"0.00000674","OBJECT_ID":"2020-057AR","DECAY_DATE":null,"REF_FRAME":"TEME","MEAN_ELEMENT_THEORY":"SGP4","GP_ID":"194677973","CENTER_NAME":"EARTH","RA_OF_ASC_NODE":"204.6162","MEAN_MOTION_DDOT":"0.0000000000000","OBJECT_NAME":"STARLINK-1545","LAUNCH_DATE":"2020-08-18","FILE":"3284266","MEAN_MOTION":"15.06394845","TIME_SYSTEM":"UTC"},{"NORAD_CAT_ID":"46157","MEAN_ANOMALY":"275.8197","EPHEMERIS_TYPE":"0","SEMIMAJOR_AXIS":"6925.323","PERIAPSIS":"545.651","TLE_LINE1":"1 46157U 20057AS  22026.76964895 -.00000250  00000-0  21137-5 0  9990","RCS_SIZE":"LARGE","TLE_LINE2":"2 46157  53.0546 183.4838 0002219  84.3045 275.8197 15.06408276 80760","ECCENTRICITY":"0.00022190","ARG_OF_PERICENTER":"84.3045","INCLINATION":"53.0546","SITE":"AFETR","APOAPSIS":"548.725","EPOCH":"2022-01-26T18:28:17.669280","PERIOD":"95.592","REV_AT_EPOCH":"8076","OBJECT_TYPE":"PAYLOAD","BSTAR":"0.00000211370000","CLASSIFICATION_TYPE":"U","ELEMENT_SET_NO":"999","COUNTRY_CODE":"US","MEAN_MOTION_DOT":"-0.00000250","OBJECT_ID":"2020-057AS","REF_FRAME":"TEME","DECAY_DATE":null,"MEAN_ELEMENT_THEORY":"SGP4","GP_ID":"194687165","CENTER_NAME":"EARTH","RA_OF_ASC_NODE":"183.4838","MEAN_MOTION_DDOT":"0.0000000000000","OBJECT_NAME":"STARLINK-1587","LAUNCH_DATE":"2020-08-18","FILE":"3284447","MEAN_MOTION":"15.06408276","TIME_SYSTEM":"UTC"},{"MEAN_MOTION_DDOT":"0.0000000000000","OBJECT_NAME":"STARLINK-1589","RA_OF_ASC_NODE":"185.0011","CENTER_NAME":"EARTH","FILE":"3284266","MEAN_MOTION":"15.06406593","TIME_SYSTEM":"UTC","LAUNCH_DATE":"2020-08-18","REF_FRAME":"TEME","DECAY_DATE":null,"GP_ID":"194678975","MEAN_ELEMENT_THEORY":"SGP4","CLASSIFICATION_TYPE":"U","ELEMENT_SET_NO":"999","OBJECT_ID":"2020-057AT","MEAN_MOTION_DOT":"-0.00000130","COUNTRY_CODE":"US","REV_AT_EPOCH":"8131","PERIOD":"95.592","EPOCH":"2022-01-26T10:25:17.649120","BSTAR":"0.00001020100000","OBJECT_TYPE":"PAYLOAD","ECCENTRICITY":"0.00017160","TLE_LINE2":"2 46158  53.0532 185.0011 0001716  80.3023 279.8160 15.06406593 81316","APOAPSIS":"548.382","SITE":"AFETR","INCLINATION":"53.0532","ARG_OF_PERICENTER":"80.3023","RCS_SIZE":"LARGE","TLE_LINE1":"1 46158U 20057AT  22026.43423205 -.00000130  00000-0  10201-4 0  9996","EPHEMERIS_TYPE":"0","SEMIMAJOR_AXIS":"6925.328","MEAN_ANOMALY":"279.8160","PERIAPSIS":"546.005","NORAD_CAT_ID":"46158"}];
